NORAD_CAT_ID,OBJECT_NAME,OBJECT_TYPE,EPOCH,MEAN_MOTION,ECCENTRICITY,INCLINATION,RA_OF_ASC_NODE,ARG_OF_PERICENTER,MEAN_ANOMALY,BSTAR,MEAN_MOTION_DOT,MEAN_MOTION_DDOT,TLE_LINE0,TLE_LINE1,TLE_LINE2,SEMIMAJOR_AXIS,PERIOD,APOGEE,PERIGEE,DECAYED
52550.0,STARLINK-3965,PAYLOAD,2022-07-28 14:00:01,15.08851714,0.0001753,53.2157,295.2933,48.5724,37.4873,-0.00085923,-0.00013941,0.0,0 STARLINK-3965,1 52550U 22051T   22209.58334491 -.00013941  00000-0 -85923-3 0  9999,2 52550  53.2157 295.2933 0001753  48.5724  37.4873 15.08851714  1307,6917.845,95.437,540.922,538.497,0.0
52550.0,STARLINK-3965,PAYLOAD,2022-07-28 22:00:00,15.08851928,0.0001715,53.2156,293.7958,50.2484,47.4194,-0.0026439,-0.00042134,0.0,0 STARLINK-3965,1 52550U 22051T   22209.91667824 -.00042134  00000-0 -26439-2 0  9997,2 52550  53.2156 293.7958 0001715  50.2484  47.4194 15.08851928  1301,6917.844,95.437,540.895,538.523,0.0
52550.0,STARLINK-3965,PAYLOAD,2022-07-29 14:00:01,15.08824536,0.0001882,53.2157,290.8043,49.7439,71.1041,0.0010829,0.00016981,0.0,0 STARLINK-3965,1 52550U 22051T   22210.58334491  .00016981  00000-0  10829-2 0  9998,2 52550  53.2157 290.8043 0001882  49.7439  71.1041 15.08824536 12372,6917.928000000001,95.439,541.095,538.491,0.0
52550.0,STARLINK-3965,PAYLOAD,2022-07-29 22:00:00,15.08852005,0.0001781999999999,53.2157,289.3068,50.9167,81.5149,-0.0016034,-0.00025724,0.0,0 STARLINK-3965,1 52550U 22051T   22210.91667824 -.00025724  00000-0 -16034-2 0  9995,2 52550  53.2157 289.3068 0001782  50.9167  81.5149 15.08852005  1300,6917.844,95.437,540.941,538.476,0.0
52550.0,STARLINK-3965,PAYLOAD,2022-07-30 14:00:01,15.08838075,0.0001914,53.2158,286.3152,48.4157,107.2185,0.00048802,7.487e-05,0.0,0 STARLINK-3965,1 52550U 22051T   22211.58334491  .00007487  00000-0  48802-3 0  9993,2 52550  53.2158 286.3152 0001914  48.4157 107.2185 15.08838075  1307,6917.886,95.438,541.075,538.427,0.0
52550.0,STARLINK-3965,PAYLOAD,2022-07-30 22:00:00,15.08845042,0.0001728,53.2157,284.8175,49.3051,117.9292,-0.0025377,-0.00040455,0.0,0 STARLINK-3965,1 52550U 22051T   22211.91667824 -.00040455  00000-0 -25377-2 0  9994,2 52550  53.2157 284.8175 0001728  49.3051 117.9292 15.08845042 12570,6917.865,95.437,540.925,538.535,0.0
52550.0,STARLINK-3965,PAYLOAD,2022-07-31 14:00:01,15.08813187,0.0001864,53.2157,281.826,46.2069,144.1991,0.0020057,0.00031754,0.0,0 STARLINK-3965,1 52550U 22051T   22212.58334491  .00031754  00000-0  20057-2 0  9999,2 52550  53.2157 281.8260 0001864  46.2069 144.1991 15.08813187 12672,6917.962,95.439,541.117,538.538,0.0
52550.0,STARLINK-3965,PAYLOAD,2022-07-31 22:00:00,15.08840197,0.0001701,53.2155,280.3282,49.2367,152.7463,-0.0010485,-0.00016936,0.0,0 STARLINK-3965,1 52550U 22051T   22212.91667824 -.00016936  00000-0 -10485-2 0  9996,2 52550  53.2155 280.3282 0001701  49.2367 152.7463 15.08840197  1300,6917.88,95.438,540.922,538.568,0.0
52550.0,STARLINK-3965,PAYLOAD,2022-08-01 06:00:00,15.08846029,0.0001679,53.2157,278.8317,53.1798,160.3854,-0.00052078,-8.568e-05,0.0,0 STARLINK-3965,1 52550U 22051T   22213.25001157 -.00008568  00000-0 -52078-3 0  9992,2 52550  53.2157 278.8317 0001679  53.1798 160.3854 15.08846029 12782,6917.861999999999,95.437,540.888,538.565,0.0
52550.0,STARLINK-3965,PAYLOAD,2022-08-01 14:00:01,15.08818997,0.000185,53.2154,277.3368,46.2891,178.8805,0.0022438,0.00035582,0.0,0 STARLINK-3965,1 52550U 22051T   22213.58334491  .00035582  00000-0  22438-2 0  9998,2 52550  53.2154 277.3368 0001850  46.2891 178.8805 15.08818997  1306,6917.945,95.439,541.089,538.53,0.0
52550.0,STARLINK-3965,PAYLOAD,2022-08-01 22:00:00,15.08843773,0.0001678,53.2152,275.8387,49.8918,186.8668,-0.00061994,-0.00010142,0.0,0 STARLINK-3965,1 52550U 22051T   22213.91667824 -.00010142  00000-0 -61994-3 0  9992,2 52550  53.2152 275.8387 0001678  49.8918 186.8668 15.08843773  1301,6917.869000000002,95.437,540.895,538.573,0.0
52550.0,STARLINK-3965,PAYLOAD,2022-08-02 06:00:02,15.08855847,0.0001666999999999,53.2152,274.3424,53.5027,194.9086,-0.00095315,-0.00015432,0.0,0 STARLINK-3965,1 52550U 22051T   22214.25002315 -.00015432  00000-0 -95315-3 0  9999,2 52550  53.2152 274.3424 0001667  53.5027 194.9086 15.08855847 12938,6917.831999999999,95.437,540.85,538.544,0.0
52550.0,STARLINK-3965,PAYLOAD,2022-08-02 14:00:01,15.08823507,0.0001841999999999,53.2149,272.8474,46.8923,213.0687,0.0024083999999999,0.00038233,0.0,0 STARLINK-3965,1 52550U 22051T   22214.58334491  .00038233  00000-0  24084-2 0  9994,2 52550  53.2149 272.8474 0001842  46.8923 213.0687 15.08823507  1304,6917.931,95.439,541.07,538.5219999999998,0.0
52550.0,STARLINK-3965,PAYLOAD,2022-08-03 06:00:00,15.08863445,0.0001682,53.2166,269.8531,53.729,229.425,-0.001222,-0.00019696,0.0,0 STARLINK-3965,1 52550U 22051T   22215.25001157 -.00019696  00000-0 -12220-2 0  9992,2 52550  53.2166 269.8531 0001682  53.7290 229.4250 15.08863445 13089,6917.809,95.436,540.837,538.51,0.0
52550.0,STARLINK-3965,PAYLOAD,2022-08-03 14:00:01,15.0880206,0.0001761,53.2164,268.358,44.7207,250.0468,0.0026923,0.00042776,0.0,0 STARLINK-3965,1 52550U 22051T   22215.58334491  .00042776  00000-0  26923-2 0  9996,2 52550  53.2164 268.3580 0001761  44.7207 250.0468 15.08802060  1300,6917.996,95.44,541.08,538.643,0.0
52550.0,STARLINK-3965,PAYLOAD,2022-08-03 22:00:01,15.08817311,0.000161,53.2163,266.8598,48.7208,257.6812,0.0005087,7.812e-05,0.0,0 STARLINK-3965,1 52550U 22051T   22215.91668981  .00007812  00000-0  50870-3 0  9998,2 52550  53.2163 266.8598 0001610  48.7208 257.6812 15.08817311 13189,6917.95,95.439,540.929,538.701,0.0
52550.0,STARLINK-3965,PAYLOAD,2022-08-04 14:00:01,15.08807372,0.0001813,53.2163,263.8688,44.287,285.2105,0.0026501999999999,0.00042105,0.0,0 STARLINK-3965,1 52550U 22051T   22216.58334491  .00042105  00000-0  26502-2 0  9996,2 52550  53.2163 263.8688 0001813  44.2870 285.2105 15.08807372  1306,6917.98,95.44,541.099,538.591,0.0
52550.0,STARLINK-3965,PAYLOAD,2022-08-04 22:00:00,15.08819077,0.0001666999999999,53.2164,262.3706,48.5875,292.4915,0.0010724999999999,0.00016812,0.0,0 STARLINK-3965,1 52550U 22051T   22216.91667824  .00016812  00000-0  10725-2 0  9998,2 52550  53.2164 262.3706 0001667  48.5875 292.4915 15.08819077  1305,6917.944,95.439,540.9630000000002,538.656,0.0
52550.0,STARLINK-3965,PAYLOAD,2022-08-05 06:00:02,15.08851011,0.0001747,53.2165,260.8746,49.7126,303.0029,-0.0016559,-0.00026553,0.0,0 STARLINK-3965,1 52550U 22051T   22217.25002315 -.00026553  00000-0 -16559-2 0  9990,2 52550  53.2165 260.8746 0001747  49.7126 303.0029 15.08851011 13384,6917.847,95.437,540.92,538.503,0.0
52550.0,STARLINK-3965,PAYLOAD,2022-08-05 14:00:01,15.08817105,0.0001893,53.2165,259.3794,43.7662,320.5492,0.0026243,0.00041699,0.0,0 STARLINK-3965,1 52550U 22051T   22217.58335648  .00041699  00000-0  26243-2 0  9991,2 52550  53.2165 259.3794 0001893  43.7662 320.5492 15.08817105  1304,6917.95,95.439,541.125,538.506,0.0
52550.0,STARLINK-3965,PAYLOAD,2022-08-05 22:00:00,15.08824084,0.0001743,53.2168,257.8813,48.3926,327.4537,0.0016687999999999,0.00026359,0.0,0 STARLINK-3965,1 52550U 22051T   22217.91667824  .00026359  00000-0  16688-2 0  9990,2 52550  53.2168 257.8813 0001743  48.3926 327.4537 15.08824084  1300,6917.929,95.439,541.0,538.5880000000002,0.0
52550.0,STARLINK-3965,PAYLOAD,2022-08-06 00:00:02,15.08819478,0.0001735,53.2166,257.5069,49.2056,59.6022,0.0026709,0.00042452,0.0,0 STARLINK-3965,1 52550U 22051T   22218.00002315  .00042452  00000-0  26709-2 0  9996,2 52550  53.2166 257.5069 0001735  49.2056  59.6022 15.08819478 13490,6917.943,95.439,541.008,538.6080000000002,0.0
52550.0,STARLINK-3965,PAYLOAD,2022-08-06 12:14:18,15.08839845,0.0001805,53.2176,255.2185,49.9433,310.1717,0.00011682,1.572e-05,0.0,0 STARLINK-3965,1 52550U 22051T   22218.50994103  .00001572  00000-0  11682-3 0  9999,2 52550  53.2176 255.2185 0001805  49.9433 310.1717 15.08839845 13574,6917.880999999999,95.438,540.995,538.497,0.0
52550.0,STARLINK-3965,PAYLOAD,2022-08-06 22:00:00,15.08829581,0.0001810999999999,53.2172,253.3922,48.6878,1.9557,0.0020675999999999,0.00032762,0.0,0 STARLINK-3965,1 52550U 22051T   22218.91667824  .00032762  00000-0  20676-2 0  9998,2 52550  53.2172 253.3922 0001811  48.6878   1.9557 15.08829581  1305,6917.9119999999975,95.438,541.03,538.524,0.0
52550.0,STARLINK-3965,PAYLOAD,2022-08-07 14:00:01,15.0883885,0.0001984,53.217,250.4013,42.1712,31.683000000000003,-0.00033512,-5.618e-05,0.0,0 STARLINK-3965,1 52550U 22051T   22219.58334491 -.00005618  00000-0 -33512-3 0  9999,2 52550  53.2170 250.4013 0001984  42.1712  31.6830 15.08838850 13732,6917.884,95.438,541.121,538.376,0.0
52550.0,STARLINK-3965,PAYLOAD,2022-08-07 22:00:00,15.08809968,0.0001761,53.2172,248.9032,46.7302,38.7257,0.0023925,0.00037963,0.0,0 STARLINK-3965,1 52550U 22051T   22219.91667824  .00037963  00000-0  23925-2 0  9997,2 52550  53.2172 248.9032 0001761  46.7302  38.7257 15.08809968  1304,6917.972,95.439,541.055,538.619,0.0
52550.0,STARLINK-3965,PAYLOAD,2022-08-08 14:00:01,15.08831127,0.0001984,53.2167,245.9122,41.9197,66.7728,0.0017254,0.00027272,0.0,0 STARLINK-3965,1 52550U 22051T   22220.58335648  .00027272  00000-0  17254-2 0  9998,2 52550  53.2167 245.9122 0001984  41.9197  66.7728 15.08831127  1307,6917.908,95.438,541.145,538.4,0.0
52550.0,STARLINK-3965,PAYLOAD,2022-08-08 22:00:00,15.08825284,0.0001774,53.2168,244.4143,47.6658,72.5697,0.0027113,0.00043109,0.0,0 STARLINK-3965,1 52550U 22051T   22220.91667824  .00043109  00000-0  27113-2 0  9991,2 52550  53.2168 244.4143 0001774  47.6658  72.5697 15.08825284  1304,6917.925,95.438,541.018,538.563,0.0
52550.0,STARLINK-3965,PAYLOAD,2022-08-09 06:00:00,15.08870237,0.0001876999999999,53.2167,242.9191,46.385,85.4407,-0.0027908,-0.00044467,0.0,0 STARLINK-3965,1 52550U 22051T   22221.25001157 -.00044467  00000-0 -27908-2 0  9992,2 52550  53.2167 242.9191 0001877  46.3850  85.4407 15.08870237 13980,6917.788000000001,95.436,540.951,538.354,0.0
